[{"OBJECT_NAME":"ORBCOMM FM06","OBJECT_ID":"1997-084G","EPOCH":"2026-03-09T15:06:31.906944","MEAN_MOTION":14.47270413,"ECCENTRICITY":0.0001937,"INCLINATION":45.0122,"RA_OF_ASC_NODE":171.8858,"ARG_OF_PERICENTER":196.1809,"MEAN_ANOMALY":301.713,"EPHEMERIS_TYPE":0,"CLASSIFICATION_TYPE":"U","NORAD_CAT_ID":25118,"ELEMENT_SET_NO":999,"REV_AT_EPOCH":47996,"BSTAR":0.00064878,"MEAN_MOTION_DOT":2.251e-5,"MEAN_MOTION_DDOT":0},{"OBJECT_NAME":"FENGYUN 1C DEB","OBJECT_ID":"1999-025CSE","EPOCH":"2026-02-16T10:30:25.425792","MEAN_MOTION":14.38278102,"ECCENTRICITY":0.00662936,"INCLINATION":98.2693,"RA_OF_ASC_NODE":48.1096,"ARG_OF_PERICENTER":337.8454,"MEAN_ANOMALY":21.9872,"EPHEMERIS_TYPE":0,"CLASSIFICATION_TYPE":"U","NORAD_CAT_ID":32136,"ELEMENT_SET_NO":999,"REV_AT_EPOCH":66034,"BSTAR":0.00067652225,"MEAN_MOTION_DOT":2.068e-5,"MEAN_MOTION_DDOT":0}]
